[{"OBJECT_NAME":"ONEWEB-0132","OBJECT_ID":"2020-100W","EPOCH":"2025-10-03T07:07:09.894720","MEAN_MOTION":13.12442094,"ECCENTRICITY":0.00016634,"INCLINATION":87.8937,"RA_OF_ASC_NODE":41.7103,"ARG_OF_PERICENTER":100.373,"MEAN_ANOMALY":259.7586,"EPHEMERIS_TYPE":0,"CLASSIFICATION_TYPE":"U","NORAD_CAT_ID":47278,"ELEMENT_SET_NO":999,"REV_AT_EPOCH":23088,"BSTAR":-0.00096067469,"MEAN_MOTION_DOT":-3.33e-6,"MEAN_MOTION_DDOT":0},{"OBJECT_NAME":"ONEWEB-0133","OBJECT_ID":"2020-100X","EPOCH":"2025-10-03T07:30:18.598464","MEAN_MOTION":13.12443311,"ECCENTRICITY":0.00015825,"INCLINATION":87.8928,"RA_OF_ASC_NODE":41.6747,"ARG_OF_PERICENTER":102.4416,"MEAN_ANOMALY":257.689,"EPHEMERIS_TYPE":0,"CLASSIFICATION_TYPE":"U","NORAD_CAT_ID":47279,"ELEMENT_SET_NO":999,"REV_AT_EPOCH":23104,"BSTAR":-0.00084220012,"MEAN_MOTION_DOT":-2.9e-6,"MEAN_MOTION_DDOT":0},{"OBJECT_NAME":"ONEWEB-0134","OBJECT_ID":"2020-100Y","EPOCH":"2025-10-02T19:47:26.561472","MEAN_MOTION":13.12440271,"ECCENTRICITY":0.00016991,"INCLINATION":87.8938,"RA_OF_ASC_NODE":41.7612,"ARG_OF_PERICENTER":108.3177,"MEAN_ANOMALY":251.8136,"EPHEMERIS_TYPE":0,"CLASSIFICATION_TYPE":"U","NORAD_CAT_ID":47280,"ELEMENT_SET_NO":999,"REV_AT_EPOCH":23095,"BSTAR":-0.00012918882,"MEAN_MOTION_DOT":-3.4e-7,"MEAN_MOTION_DDOT":0},{"OBJECT_NAME":"ONEWEB-0135","OBJECT_ID":"2020-100Z","EPOCH":"2025-10-03T06:04:06.224448","MEAN_MOTION":13.12443329,"ECCENTRICITY":0.00016233,"INCLINATION":87.8935,"RA_OF_ASC_NODE":41.7165,"ARG_OF_PERICENTER":114.0453,"MEAN_ANOMALY":246.0846,"EPHEMERIS_TYPE":0,"CLASSIFICATION_TYPE":"U","NORAD_CAT_ID":47281,"ELEMENT_SET_NO":999,"REV_AT_EPOCH":23103,"BSTAR":0.00085216918,"MEAN_MOTION_DOT":3.19e-6,"MEAN_MOTION_DDOT":0},{"OBJECT_NAME":"ONEWEB-0136","OBJECT_ID":"2020-100AA","EPOCH":"2025-10-03T06:32:08.403072","MEAN_MOTION":13.12441836,"ECCENTRICITY":0.00018489,"INCLINATION":87.8937,"RA_OF_ASC_NODE":41.6812,"ARG_OF_PERICENTER":113.8821,"MEAN_ANOMALY":246.2501,"EPHEMERIS_TYPE":0,"CLASSIFICATION_TYPE":"U","NORAD_CAT_ID":47282,"ELEMENT_SET_NO":999,"REV_AT_EPOCH":23096,"BSTAR":0.00093608962,"MEAN_MOTION_DOT":3.49e-6,"MEAN_MOTION_DDOT":0},{"OBJECT_NAME":"ONEWEB-0137","OBJECT_ID":"2020-100AB","EPOCH":"2025-10-03T07:21:10.333440","MEAN_MOTION":13.12442984,"ECCENTRICITY":0.00018537,"INCLINATION":87.8935,"RA_OF_ASC_NODE":41.6808,"ARG_OF_PERICENTER":96.1109,"MEAN_ANOMALY":264.0231,"EPHEMERIS_TYPE":0,"CLASSIFICATION_TYPE":"U","NORAD_CAT_ID":47283,"ELEMENT_SET_NO":999,"REV_AT_EPOCH":23087,"BSTAR":-0.0010772325,"MEAN_MOTION_DOT":-3.75e-6,"MEAN_MOTION_DDOT":0},{"OBJECT_NAME":"ONEWEB-0138","OBJECT_ID":"2020-100AC","EPOCH":"2025-10-03T06:50:47.608800","MEAN_MOTION":13.124402,"ECCENTRICITY":0.00017619,"INCLINATION":87.8938,"RA_OF_ASC_NODE":41.6941,"ARG_OF_PERICENTER":105.7499,"MEAN_ANOMALY":254.3824,"EPHEMERIS_TYPE":0,"CLASSIFICATION_TYPE":"U","NORAD_CAT_ID":47284,"ELEMENT_SET_NO":999,"REV_AT_EPOCH":23095,"BSTAR":-7.9109754e-5,"MEAN_MOTION_DOT":-1.6e-7,"MEAN_MOTION_DDOT":0},{"OBJECT_NAME":"ONEWEB-0139","OBJECT_ID":"2020-100AD","EPOCH":"2025-10-03T07:47:05.245728","MEAN_MOTION":13.12445093,"ECCENTRICITY":0.00017089,"INCLINATION":87.8936,"RA_OF_ASC_NODE":41.6768,"ARG_OF_PERICENTER":99.7889,"MEAN_ANOMALY":260.3432,"EPHEMERIS_TYPE":0,"CLASSIFICATION_TYPE":"U","NORAD_CAT_ID":47285,"ELEMENT_SET_NO":999,"REV_AT_EPOCH":23103,"BSTAR":0.00036911238,"MEAN_MOTION_DOT":1.46e-6,"MEAN_MOTION_DDOT":0},{"OBJECT_NAME":"ONEWEB-0140","OBJECT_ID":"2020-100AE","EPOCH":"2025-10-03T06:41:28.034880","MEAN_MOTION":13.1244147,"ECCENTRICITY":0.00017483,"INCLINATION":87.8939,"RA_OF_ASC_NODE":41.671,"ARG_OF_PERICENTER":103.4639,"MEAN_ANOMALY":256.6685,"EPHEMERIS_TYPE":0,"CLASSIFICATION_TYPE":"U","NORAD_CAT_ID":47286,"ELEMENT_SET_NO":999,"REV_AT_EPOCH":23099,"BSTAR":0.00055678123,"MEAN_MOTION_DOT":2.13e-6,"MEAN_MOTION_DDOT":0},{"OBJECT_NAME":"ONEWEB-0141","OBJECT_ID":"2020-100AF","EPOCH":"2025-10-03T07:46:39.993600","MEAN_MOTION":13.1244288,"ECCENTRICITY":0.000203,"INCLINATION":87.8929,"RA_OF_ASC_NODE":41.6757,"ARG_OF_PERICENTER":93.9161,"MEAN_ANOMALY":266.22,"EPHEMERIS_TYPE":0,"CLASSIFICATION_TYPE":"U","NORAD_CAT_ID":47287,"ELEMENT_SET_NO":999,"REV_AT_EPOCH":23098,"BSTAR":0.00035672285,"MEAN_MOTION_DOT":1.41e-6,"MEAN_MOTION_DDOT":0},{"OBJECT_NAME":"ONEWEB-0142","OBJECT_ID":"2020-100AG","EPOCH":"2025-10-02T20:32:02.371200","MEAN_MOTION":13.12444198,"ECCENTRICITY":0.00020968,"INCLINATION":87.8944,"RA_OF_ASC_NODE":41.7872,"ARG_OF_PERICENTER":98.4825,"MEAN_ANOMALY":261.6542,"EPHEMERIS_TYPE":0,"CLASSIFICATION_TYPE":"U","NORAD_CAT_ID":47288,"ELEMENT_SET_NO":999,"REV_AT_EPOCH":23091,"BSTAR":-0.00062714059,"MEAN_MOTION_DOT":-2.13e-6,"MEAN_MOTION_DDOT":0},{"OBJECT_NAME":"ONEWEB-0143","OBJECT_ID":"2020-100AH","EPOCH":"2025-10-02T20:45:50.153184","MEAN_MOTION":13.12442195,"ECCENTRICITY":0.000172,"INCLINATION":87.8937,"RA_OF_ASC_NODE":41.7814,"ARG_OF_PERICENTER":98.5254,"MEAN_ANOMALY":261.6069,"EPHEMERIS_TYPE":0,"CLASSIFICATION_TYPE":"U","NORAD_CAT_ID":47289,"ELEMENT_SET_NO":999,"REV_AT_EPOCH":23089,"BSTAR":0.00030948217,"MEAN_MOTION_DOT":1.24e-6,"MEAN_MOTION_DDOT":0},{"OBJECT_NAME":"ONEWEB-0144","OBJECT_ID":"2020-100AJ","EPOCH":"2025-10-03T07:04:49.091232","MEAN_MOTION":13.1244163,"ECCENTRICITY":0.00019787,"INCLINATION":87.893,"RA_OF_ASC_NODE":41.6694,"ARG_OF_PERICENTER":103.5762,"MEAN_ANOMALY":256.5587,"EPHEMERIS_TYPE":0,"CLASSIFICATION_TYPE":"U","NORAD_CAT_ID":47290,"ELEMENT_SET_NO":999,"REV_AT_EPOCH":23087,"BSTAR":-0.00080693985,"MEAN_MOTION_DOT":-2.78e-6,"MEAN_MOTION_DDOT":0},{"OBJECT_NAME":"ONEWEB-0145","OBJECT_ID":"2020-100AK","EPOCH":"2025-10-03T06:22:46.777152","MEAN_MOTION":13.1244185,"ECCENTRICITY":0.0001807,"INCLINATION":87.8939,"RA_OF_ASC_NODE":41.7083,"ARG_OF_PERICENTER":101.108,"MEAN_ANOMALY":259.0252,"EPHEMERIS_TYPE":0,"CLASSIFICATION_TYPE":"U","NORAD_CAT_ID":47291,"ELEMENT_SET_NO":999,"REV_AT_EPOCH":23106,"BSTAR":0.0011785381,"MEAN_MOTION_DOT":4.37e-6,"MEAN_MOTION_DDOT":0},{"OBJECT_NAME":"ONEWEB-0146","OBJECT_ID":"2020-100AL","EPOCH":"2025-10-02T21:09:12.568608","MEAN_MOTION":13.12441539,"ECCENTRICITY":0.00014259,"INCLINATION":87.8937,"RA_OF_ASC_NODE":41.7715,"ARG_OF_PERICENTER":92.6535,"MEAN_ANOMALY":267.4756,"EPHEMERIS_TYPE":0,"CLASSIFICATION_TYPE":"U","NORAD_CAT_ID":47292,"ELEMENT_SET_NO":999,"REV_AT_EPOCH":23092,"BSTAR":0.0012165339,"MEAN_MOTION_DOT":4.5e-6,"MEAN_MOTION_DDOT":0},{"OBJECT_NAME":"ONEWEB-0147","OBJECT_ID":"2020-100AM","EPOCH":"2025-10-03T07:18:49.662144","MEAN_MOTION":13.12442993,"ECCENTRICITY":0.00017095,"INCLINATION":87.8941,"RA_OF_ASC_NODE":41.6657,"ARG_OF_PERICENTER":109.0754,"MEAN_ANOMALY":251.0559,"EPHEMERIS_TYPE":0,"CLASSIFICATION_TYPE":"U","NORAD_CAT_ID":47293,"ELEMENT_SET_NO":999,"REV_AT_EPOCH":23087,"BSTAR":-0.00090790435,"MEAN_MOTION_DOT":-3.14e-6,"MEAN_MOTION_DDOT":0},{"OBJECT_NAME":"ONEWEB-0115","OBJECT_ID":"2021-025A","EPOCH":"2025-10-03T07:18:59.926464","MEAN_MOTION":13.13470339,"ECCENTRICITY":0.00018109,"INCLINATION":87.905,"RA_OF_ASC_NODE":11.2524,"ARG_OF_PERICENTER":100.0404,"MEAN_ANOMALY":260.093,"EPHEMERIS_TYPE":0,"CLASSIFICATION_TYPE":"U","NORAD_CAT_ID":48042,"ELEMENT_SET_NO":999,"REV_AT_EPOCH":21987,"BSTAR":-0.00051389408,"MEAN_MOTION_DOT":-1.75e-6,"MEAN_MOTION_DDOT":0},{"OBJECT_NAME":"ONEWEB-0152","OBJECT_ID":"2021-025B","EPOCH":"2025-10-03T05:48:48.002400","MEAN_MOTION":13.13468563,"ECCENTRICITY":0.00017086,"INCLINATION":87.9041,"RA_OF_ASC_NODE":11.2784,"ARG_OF_PERICENTER":101.1458,"MEAN_ANOMALY":258.9863,"EPHEMERIS_TYPE":0,"CLASSIFICATION_TYPE":"U","NORAD_CAT_ID":48043,"ELEMENT_SET_NO":999,"REV_AT_EPOCH":21982,"BSTAR":0.00047095625,"MEAN_MOTION_DOT":1.85e-6,"MEAN_MOTION_DDOT":0},{"OBJECT_NAME":"ONEWEB-0153","OBJECT_ID":"2021-025C","EPOCH":"2025-10-03T07:06:48.210912","MEAN_MOTION":13.13468593,"ECCENTRICITY":0.00018877,"INCLINATION":87.9056,"RA_OF_ASC_NODE":11.2685,"ARG_OF_PERICENTER":100.6715,"MEAN_ANOMALY":259.4627,"EPHEMERIS_TYPE":0,"CLASSIFICATION_TYPE":"U","NORAD_CAT_ID":48044,"ELEMENT_SET_NO":999,"REV_AT_EPOCH":21982,"BSTAR":-0.00099649596,"MEAN_MOTION_DOT":-3.51e-6,"MEAN_MOTION_DDOT":0},{"OBJECT_NAME":"ONEWEB-0154","OBJECT_ID":"2021-025D","EPOCH":"2025-10-03T07:01:56.222112","MEAN_MOTION":13.13470111,"ECCENTRICITY":0.0001788,"INCLINATION":87.9054,"RA_OF_ASC_NODE":11.2657,"ARG_OF_PERICENTER":102.9585,"MEAN_ANOMALY":257.1744,"EPHEMERIS_TYPE":0,"CLASSIFICATION_TYPE":"U","NORAD_CAT_ID":48045,"ELEMENT_SET_NO":999,"REV_AT_EPOCH":21978,"BSTAR":-0.00090232134,"MEAN_MOTION_DOT":-3.17e-6,"MEAN_MOTION_DDOT":0},{"OBJECT_NAME":"ONEWEB-0116","OBJECT_ID":"2021-025E","EPOCH":"2025-10-03T06:08:18.765600","MEAN_MOTION":13.13469432,"ECCENTRICITY":0.00016905,"INCLINATION":87.9056,"RA_OF_ASC_NODE":11.2557,"ARG_OF_PERICENTER":99.8805,"MEAN_ANOMALY":260.2515,"EPHEMERIS_TYPE":0,"CLASSIFICATION_TYPE":"U","NORAD_CAT_ID":48046,"ELEMENT_SET_NO":999,"REV_AT_EPOCH":21992,"BSTAR":0.0010309932,"MEAN_MOTION_DOT":3.89e-6,"MEAN_MOTION_DDOT":0},{"OBJECT_NAME":"ONEWEB-0150","OBJECT_ID":"2021-025F","EPOCH":"2025-10-03T07:23:52.562400","MEAN_MOTION":13.13469768,"ECCENTRICITY":0.00019795,"INCLINATION":87.9051,"RA_OF_ASC_NODE":11.24,"ARG_OF_PERICENTER":96.1743,"MEAN_ANOMALY":263.9611,"EPHEMERIS_TYPE":0,"CLASSIFICATION_TYPE":"U","NORAD_CAT_ID":48047,"ELEMENT_SET_NO":999,"REV_AT_EPOCH":21982,"BSTAR":-0.00022555053,"MEAN_MOTION_DOT":-7.0e-7,"MEAN_MOTION_DDOT":0},{"OBJECT_NAME":"ONEWEB-0107","OBJECT_ID":"2021-025G","EPOCH":"2025-10-03T05:36:37.824768","MEAN_MOTION":13.13470886,"ECCENTRICITY":0.00021418,"INCLINATION":87.9047,"RA_OF_ASC_NODE":11.2522,"ARG_OF_PERICENTER":104.7948,"MEAN_ANOMALY":255.3418,"EPHEMERIS_TYPE":0,"CLASSIFICATION_TYPE":"U","NORAD_CAT_ID":48048,"ELEMENT_SET_NO":999,"REV_AT_EPOCH":21979,"BSTAR":-1.6895148e-5,"MEAN_MOTION_DOT":7.0e-8,"MEAN_MOTION_DDOT":0}]
